{
  "type": "FeatureCollection",
  "features": [
    {
      "type": "Feature",
      "properties": {
        "norad_id": 34088,
        "name": "IRIDIUM 33 DEB",
        "group": "iridium-33-debris",
        "lat": -5.411239303518424,
        "lon": -155.21185734896318,
        "alt_km": 592.3601672615059,
        "timestamp": "2025-12-26T09:30:54.024213+00:00",
        "meta_object_name": "IRIDIUM 33 DEB",
        "meta_object_id": "1997-051CX",
        "meta_epoch": "2025-12-26T02:30:32.479776",
        "meta_mean_motion": 14.91984405,
        "meta_eccentricity": 0.0007156,
        "meta_inclination": 86.3845,
        "meta_ra_of_asc_node": 24.5792,
        "meta_arg_of_pericenter": 135.5751,
        "meta_mean_anomaly": 282.7745,
        "meta_ephemeris_type": 0,
        "meta_classification_type": "U",
        "meta_norad_cat_id": 34088,
        "meta_element_set_no": 999,
        "meta_rev_at_epoch": 88941,
        "meta_bstar": 0.0022346,
        "meta_mean_motion_dot": 0.00022718,
        "meta_mean_motion_ddot": 0,
        "tle_line1": "1 34088U 97051CX  25360.10454259  .00022718  00000+0  22346-2 0  9999",
        "tle_line2": "2 34088  86.3845  24.5792 0007156 135.5751 282.7745 14.91984405889414"
      },
      "geometry": {
        "type": "Point",
        "coordinates": [
          -155.21185734896318,
          -5.411239303518424
        ]
      }
    },
    {
      "type": "Feature",
      "properties": {
        "norad_id": 34091,
        "name": "IRIDIUM 33 DEB",
        "group": "iridium-33-debris",
        "lat": -86.22771403091936,
        "lon": -15.496210151385291,
        "alt_km": 606.337913946204,
        "timestamp": "2025-12-26T09:30:54.024223+00:00",
        "meta_object_name": "IRIDIUM 33 DEB",
        "meta_object_id": "1997-051DA",
        "meta_epoch": "2025-12-26T03:26:13.490016",
        "meta_mean_motion": 14.82802245,
        "meta_eccentricity": 0.0034384,
        "meta_inclination": 86.3408,
        "meta_ra_of_asc_node": 60.6907,
        "meta_arg_of_pericenter": 245.3053,
        "meta_mean_anomaly": 114.4589,
        "meta_ephemeris_type": 0,
        "meta_classification_type": "U",
        "meta_norad_cat_id": 34091,
        "meta_element_set_no": 999,
        "meta_rev_at_epoch": 88065,
        "meta_bstar": 0.0044295,
        "meta_mean_motion_dot": 0.00036356,
        "meta_mean_motion_ddot": 0,
        "tle_line1": "1 34091U 97051DA  25360.14321169  .00036356  00000+0  44295-2 0  9990",
        "tle_line2": "2 34091  86.3408  60.6907 0034384 245.3053 114.4589 14.82802245880655"
      },
      "geometry": {
        "type": "Point",
        "coordinates": [
          -15.496210151385291,
          -86.22771403091936
        ]
      }
    },
    {
      "type": "Feature",
      "properties": {
        "norad_id": 34097,
        "name": "IRIDIUM 33 DEB",
        "group": "iridium-33-debris",
        "lat": -11.506022783492178,
        "lon": -5.396210464710807,
        "alt_km": 729.9458824604499,
        "timestamp": "2025-12-26T09:30:54.024234+00:00",
        "meta_object_name": "IRIDIUM 33 DEB",
        "meta_object_id": "1997-051DG",
        "meta_epoch": "2025-12-25T23:31:33.693312",
        "meta_mean_motion": 14.3488456,
        "meta_eccentricity": 0.0081292,
        "meta_inclination": 86.2006,
        "meta_ra_of_asc_node": 355.5625,
        "meta_arg_of_pericenter": 318.8102,
        "meta_mean_anomaly": 40.6976,
        "meta_ephemeris_type": 0,
        "meta_classification_type": "U",
        "meta_norad_cat_id": 34097,
        "meta_element_set_no": 999,
        "meta_rev_at_epoch": 87309,
        "meta_bstar": 0.0015957,
        "meta_mean_motion_dot": 4.723e-05,
        "meta_mean_motion_ddot": 0,
        "tle_line1": "1 34097U 97051DG  25359.98025108  .00004723  00000+0  15957-2 0  9996",
        "tle_line2": "2 34097  86.2006 355.5625 0081292 318.8102  40.6976 14.34884560873095"
      },
      "geometry": {
        "type": "Point",
        "coordinates": [
          -5.396210464710807,
          -11.506022783492178
        ]
      }
    },
    {
      "type": "Feature",
      "properties": {
        "norad_id": 34145,
        "name": "IRIDIUM 33 DEB",
        "group": "iridium-33-debris",
        "lat": -84.11780426739519,
        "lon": -173.5462373955675,
        "alt_km": 790.3462004651947,
        "timestamp": "2025-12-26T09:30:54.024245+00:00",
        "meta_object_name": "IRIDIUM 33 DEB",
        "meta_object_id": "1997-051DY",
        "meta_epoch": "2025-12-25T22:17:54.684096",
        "meta_mean_motion": 14.42385613,
        "meta_eccentricity": 0.0055445,
        "meta_inclination": 86.2129,
        "meta_ra_of_asc_node": 326.6523,
        "meta_arg_of_pericenter": 51.9493,
        "meta_mean_anomaly": 308.6692,
        "meta_ephemeris_type": 0,
        "meta_classification_type": "U",
        "meta_norad_cat_id": 34145,
        "meta_element_set_no": 999,
        "meta_rev_at_epoch": 87828,
        "meta_bstar": 0.0013201,
        "meta_mean_motion_dot": 4.465e-05,
        "meta_mean_motion_ddot": 0,
        "tle_line1": "1 34145U 97051DY  25359.92910514  .00004465  00000+0  13201-2 0  9991",
        "tle_line2": "2 34145  86.2129 326.6523 0055445  51.9493 308.6692 14.42385613878282"
      },
      "geometry": {
        "type": "Point",
        "coordinates": [
          -173.5462373955675,
          -84.11780426739519
        ]
      }
    },
    {
      "type": "Feature",
      "properties": {
        "norad_id": 34146,
        "name": "IRIDIUM 33 DEB",
        "group": "iridium-33-debris",
        "lat": -55.29545668757718,
        "lon": 169.15098409259627,
        "alt_km": 726.16696085904,
        "timestamp": "2025-12-26T09:30:54.024256+00:00",
        "meta_object_name": "IRIDIUM 33 DEB",
        "meta_object_id": "1997-051DZ",
        "meta_epoch": "2025-12-25T22:37:42.914784",
        "meta_mean_motion": 14.49132672,
        "meta_eccentricity": 0.0027003,
        "meta_inclination": 86.2842,
        "meta_ra_of_asc_node": 343.9669,
        "meta_arg_of_pericenter": 176.2288,
        "meta_mean_anomaly": 214.0299,
        "meta_ephemeris_type": 0,
        "meta_classification_type": "U",
        "meta_norad_cat_id": 34146,
        "meta_element_set_no": 999,
        "meta_rev_at_epoch": 88298,
        "meta_bstar": 0.00090103,
        "meta_mean_motion_dot": 3.461e-05,
        "meta_mean_motion_ddot": 0,
        "tle_line1": "1 34146U 97051DZ  25359.94285781  .00003461  00000+0  90103-3 0  9997",
        "tle_line2": "2 34146  86.2842 343.9669 0027003 176.2288 214.0299 14.49132672882987"
      },
      "geometry": {
        "type": "Point",
        "coordinates": [
          169.15098409259627,
          -55.29545668757718
        ]
      }
    },
    {
      "type": "Feature",
      "properties": {
        "norad_id": 34159,
        "name": "IRIDIUM 33 DEB",
        "group": "iridium-33-debris",
        "lat": 29.688516598613578,
        "lon": -139.66874397174277,
        "alt_km": 761.759269149582,
        "timestamp": "2025-12-26T09:30:54.024266+00:00",
        "meta_object_name": "IRIDIUM 33 DEB",
        "meta_object_id": "1997-051EN",
        "meta_epoch": "2025-12-26T02:08:20.179680",
        "meta_mean_motion": 14.38525461,
        "meta_eccentricity": 0.0026279,
        "meta_inclination": 86.3493,
        "meta_ra_of_asc_node": 42.5483,
        "meta_arg_of_pericenter": 240.6679,
        "meta_mean_anomaly": 119.1893,
        "meta_ephemeris_type": 0,
        "meta_classification_type": "U",
        "meta_norad_cat_id": 34159,
        "meta_element_set_no": 999,
        "meta_rev_at_epoch": 88151,
        "meta_bstar": 0.00037826,
        "meta_mean_motion_dot": 1.179e-05,
        "meta_mean_motion_ddot": 0,
        "tle_line1": "1 34159U 97051EN  25360.08912245  .00001179  00000+0  37826-3 0  9997",
        "tle_line2": "2 34159  86.3493  42.5483 0026279 240.6679 119.1893 14.38525461881517"
      },
      "geometry": {
        "type": "Point",
        "coordinates": [
          -139.66874397174277,
          29.688516598613578
        ]
      }
    },
    {
      "type": "Feature",
      "properties": {
        "norad_id": 34350,
        "name": "IRIDIUM 33 DEB",
        "group": "iridium-33-debris",
        "lat": 22.01423339979717,
        "lon": 175.39243225250235,
        "alt_km": 733.2191008792761,
        "timestamp": "2025-12-26T09:30:54.024277+00:00",
        "meta_object_name": "IRIDIUM 33 DEB",
        "meta_object_id": "1997-051ES",
        "meta_epoch": "2025-12-26T00:45:52.672032",
        "meta_mean_motion": 14.45417432,
        "meta_eccentricity": 0.0023521,
        "meta_inclination": 86.3273,
        "meta_ra_of_asc_node": 357.0387,
        "meta_arg_of_pericenter": 94.6131,
        "meta_mean_anomaly": 326.9931,
        "meta_ephemeris_type": 0,
        "meta_classification_type": "U",
        "meta_norad_cat_id": 34350,
        "meta_element_set_no": 999,
        "meta_rev_at_epoch": 88485,
        "meta_bstar": 0.00033943,
        "meta_mean_motion_dot": 1.218e-05,
        "meta_mean_motion_ddot": 0,
        "tle_line1": "1 34350U 97051ES  25360.03185963  .00001218  00000+0  33943-3 0  9994",
        "tle_line2": "2 34350  86.3273 357.0387 0023521  94.6131 326.9931 14.45417432884857"
      },
      "geometry": {
        "type": "Point",
        "coordinates": [
          175.39243225250235,
          22.01423339979717
        ]
      }
    }
  ]
}